[{"OBJECT_NAME":"STARLINK-3806","OBJECT_ID":"2022-045AZ","EPOCH":"2026-03-09T14:31:29.590176","MEAN_MOTION":15.08842574,"ECCENTRICITY":0.0001285,"INCLINATION":53.2176,"RA_OF_ASC_NODE":189.5022,"ARG_OF_PERICENTER":90.0541,"MEAN_ANOMALY":270.0598,"EPHEMERIS_TYPE":0,"CLASSIFICATION_TYPE":"U","NORAD_CAT_ID":52378,"ELEMENT_SET_NO":999,"REV_AT_EPOCH":21591,"BSTAR":2.3998e-5,"MEAN_MOTION_DOT":9.4e-7,"MEAN_MOTION_DDOT":0},{"OBJECT_NAME":"THOR ABLESTAR DEB","OBJECT_ID":"1961-015EX","EPOCH":"2026-03-09T22:58:31.837152","MEAN_MOTION":15.04262729,"ECCENTRICITY":0.00191468,"INCLINATION":67.4961,"RA_OF_ASC_NODE":12.7011,"ARG_OF_PERICENTER":32.2919,"MEAN_ANOMALY":327.9391,"EPHEMERIS_TYPE":0,"CLASSIFICATION_TYPE":"U","NORAD_CAT_ID":461,"ELEMENT_SET_NO":999,"REV_AT_EPOCH":37086,"BSTAR":0.0020469071,"MEAN_MOTION_DOT":0.00028661,"MEAN_MOTION_DDOT":0}]
